[
    {
        "CCSDS_OMM_VERS": "3.0",
        "COMMENT": "GENERATED VIA SPACE-TRACK.ORG API",
        "CREATION_DATE": "2025-04-10T00:46:17",
        "ORIGINATOR": "18 SPCS",
        "OBJECT_NAME": "BD-17",
        "OBJECT_ID": "2015-019A",
        "CENTER_NAME": "EARTH",
        "REF_FRAME": "TEME",
        "TIME_SYSTEM": "UTC",
        "MEAN_ELEMENT_THEORY": "SGP4",
        "EPOCH": "2025-04-09T13:02:21.837984",
        "MEAN_MOTION": "1.00293072",
        "ECCENTRICITY": "0.00374820",
        "INCLINATION": "50.0145",
        "RA_OF_ASC_NODE": "300.6649",
        "ARG_OF_PERICENTER": "190.9834",
        "MEAN_ANOMALY": "354.4673",
        "EPHEMERIS_TYPE": "0",
        "CLASSIFICATION_TYPE": "U",
        "NORAD_CAT_ID": "40549",
        "ELEMENT_SET_NO": "999",
        "REV_AT_EPOCH": "3671",
        "BSTAR": "0.00000000000000",
        "MEAN_MOTION_DOT": "-0.00000148",
        "MEAN_MOTION_DDOT": "0.0000000000000",
        "SEMIMAJOR_AXIS": "42158.765",
        "PERIOD": "1435.792",
        "APOAPSIS": "35938.650",
        "PERIAPSIS": "35622.611",
        "OBJECT_TYPE": "PAYLOAD",
        "RCS_SIZE": "LARGE",
        "COUNTRY_CODE": "PRC",
        "LAUNCH_DATE": "2015-03-30",
        "SITE": "XSC",
        "DECAY_DATE": null,
        "FILE": "4697214",
        "GP_ID": "285249145",
        "TLE_LINE0": "0 BD-17",
        "TLE_LINE1": "1 40549U 15019A   25099.54330831 -.00000148  00000-0  00000+0 0  9993",
        "TLE_LINE2": "2 40549  50.0145 300.6649 0037482 190.9834 354.4673  1.00293072 36718"
    }
]